[
  {
    "OBJECT_NAME": "STARLINK-3399",
    "OBJECT_ID": "22005T",
    "EPOCH": "2025-11-11T02:25:10.178400",
    "MEAN_MOTION": 15.08855095,
    "ECCENTRICITY": 6.35e-05,
    "INCLINATION": 53.2167,
    "RA_OF_ASC_NODE": 101.4954,
    "ARG_OF_PERICENTER": 87.8733,
    "MEAN_ANOMALY": 272.2332,
    "EPHEMERIS_TYPE": 0,
    "CLASSIFICATION_TYPE": "U",
    "NORAD_CAT_ID": 51121,
    "ELEMENT_SET_NO": 999,
    "REV_AT_EPOCH": 21097,
    "BSTAR": 0.00035993000000000006,
    "MEAN_MOTION_DOT": 5.448e-05,
    "MEAN_MOTION_DDOT": 0.0,
    "TLE_LINE1": "1 51121U 22005T   25315.10081225  .00005448  00000+0  35993-3 0  9996",
    "TLE_LINE2": "2 51121  53.2167 101.4954 0000635  87.8733 272.2332 15.08855095210976",
    "COMMENT": "Grouped by shell and plane from TLE"
  },
  {
    "OBJECT_NAME": "STARLINK-3392",
    "OBJECT_ID": "22005V",
    "EPOCH": "2025-11-11T03:32:43.103040",
    "MEAN_MOTION": 15.0885013,
    "ECCENTRICITY": 0.000103,
    "INCLINATION": 53.2171,
    "RA_OF_ASC_NODE": 101.2753,
    "ARG_OF_PERICENTER": 78.7173,
    "MEAN_ANOMALY": 281.3935,
    "EPHEMERIS_TYPE": 0,
    "CLASSIFICATION_TYPE": "U",
    "NORAD_CAT_ID": 51123,
    "ELEMENT_SET_NO": 999,
    "REV_AT_EPOCH": 21098,
    "BSTAR": 0.00012179,
    "MEAN_MOTION_DOT": 1.652e-05,
    "MEAN_MOTION_DDOT": 0.0,
    "TLE_LINE1": "1 51123U 22005V   25315.14772110  .00001652  00000+0  12179-3 0  9996",
    "TLE_LINE2": "2 51123  53.2171 101.2753 0001030  78.7173 281.3935 15.08850130210981",
    "COMMENT": "Grouped by shell and plane from TLE"
  },
  {
    "OBJECT_NAME": "STARLINK-3369",
    "OBJECT_ID": "22005AQ",
    "EPOCH": "2025-11-10T16:30:00.023328",
    "MEAN_MOTION": 15.13512055,
    "ECCENTRICITY": 0.0005861,
    "INCLINATION": 53.2133,
    "RA_OF_ASC_NODE": 102.2111,
    "ARG_OF_PERICENTER": 158.0719,
    "MEAN_ANOMALY": 202.0527,
    "EPHEMERIS_TYPE": 0,
    "CLASSIFICATION_TYPE": "U",
    "NORAD_CAT_ID": 51142,
    "ELEMENT_SET_NO": 999,
    "REV_AT_EPOCH": 21092,
    "BSTAR": 0.0028621000000000002,
    "MEAN_MOTION_DOT": 0.0005194,
    "MEAN_MOTION_DDOT": 0.0,
    "TLE_LINE1": "1 51142U 22005AQ  25314.68750027  .00051940  00000+0  28621-2 0  9991",
    "TLE_LINE2": "2 51142  53.2133 102.2111 0005861 158.0719 202.0527 15.13512055210921",
    "COMMENT": "Grouped by shell and plane from TLE"
  },
  {
    "OBJECT_NAME": "STARLINK-4778",
    "OBJECT_ID": "22114U",
    "EPOCH": "2025-11-10T11:46:10.668000",
    "MEAN_MOTION": 15.08869886,
    "ECCENTRICITY": 0.0001606,
    "INCLINATION": 53.2161,
    "RA_OF_ASC_NODE": 109.4302,
    "ARG_OF_PERICENTER": 100.4601,
    "MEAN_ANOMALY": 259.6572,
    "EPHEMERIS_TYPE": 0,
    "CLASSIFICATION_TYPE": "U",
    "NORAD_CAT_ID": 53836,
    "ELEMENT_SET_NO": 999,
    "REV_AT_EPOCH": 17497,
    "BSTAR": 0.0,
    "MEAN_MOTION_DOT": -3.572e-05,
    "MEAN_MOTION_DDOT": 0.0,
    "TLE_LINE1": "1 53836U 22114U   25314.49040125 -.00003572  00000+0 -20628-3 0  9994",
    "TLE_LINE2": "2 53836  53.2161 109.4302 0001606 100.4601 259.6572 15.08869886174972",
    "COMMENT": "Grouped by shell and plane from TLE"
  },
  {
    "OBJECT_NAME": "STARLINK-4773",
    "OBJECT_ID": "22114W",
    "EPOCH": "2025-11-10T10:05:29.565312",
    "MEAN_MOTION": 15.08841108,
    "ECCENTRICITY": 0.0001494,
    "INCLINATION": 53.2181,
    "RA_OF_ASC_NODE": 109.71,
    "ARG_OF_PERICENTER": 89.6226,
    "MEAN_ANOMALY": 270.4937,
    "EPHEMERIS_TYPE": 0,
    "CLASSIFICATION_TYPE": "U",
    "NORAD_CAT_ID": 53838,
    "ELEMENT_SET_NO": 999,
    "REV_AT_EPOCH": 17496,
    "BSTAR": 9.1828e-05,
    "MEAN_MOTION_DOT": 1.174e-05,
    "MEAN_MOTION_DDOT": 0.0,
    "TLE_LINE1": "1 53838U 22114W   25314.42048108  .00001174  00000+0  91828-4 0  9993",
    "TLE_LINE2": "2 53838  53.2181 109.7100 0001494  89.6226 270.4937 15.08841108174963",
    "COMMENT": "Grouped by shell and plane from TLE"
  },
  {
    "OBJECT_NAME": "STARLINK-4784",
    "OBJECT_ID": "22114X",
    "EPOCH": "2025-11-11T03:45:20.401632",
    "MEAN_MOTION": 15.08842261,
    "ECCENTRICITY": 0.0001357,
    "INCLINATION": 53.2163,
    "RA_OF_ASC_NODE": 106.4831,
    "ARG_OF_PERICENTER": 87.4986,
    "MEAN_ANOMALY": 272.6162,
    "EPHEMERIS_TYPE": 0,
    "CLASSIFICATION_TYPE": "U",
    "NORAD_CAT_ID": 53839,
    "ELEMENT_SET_NO": 999,
    "REV_AT_EPOCH": 17507,
    "BSTAR": 8.4783e-05,
    "MEAN_MOTION_DOT": 1.062e-05,
    "MEAN_MOTION_DDOT": 0.0,
    "TLE_LINE1": "1 53839U 22114X   25315.15648613  .00001062  00000+0  84783-4 0  9990",
    "TLE_LINE2": "2 53839  53.2163 106.4831 0001357  87.4986 272.6162 15.08842261175074",
    "COMMENT": "Grouped by shell and plane from TLE"
  },
  {
    "OBJECT_NAME": "STARLINK-4766",
    "OBJECT_ID": "22114Y",
    "EPOCH": "2025-11-10T11:26:20.214240",
    "MEAN_MOTION": 15.08842915,
    "ECCENTRICITY": 0.0001161,
    "INCLINATION": 53.2159,
    "RA_OF_ASC_NODE": 109.3459,
    "ARG_OF_PERICENTER": 86.0727,
    "MEAN_ANOMALY": 274.0398,
    "EPHEMERIS_TYPE": 0,
    "CLASSIFICATION_TYPE": "U",
    "NORAD_CAT_ID": 53840,
    "ELEMENT_SET_NO": 999,
    "REV_AT_EPOCH": 17497,
    "BSTAR": 6.979600000000001e-05,
    "MEAN_MOTION_DOT": 8.23e-06,
    "MEAN_MOTION_DDOT": 0.0,
    "TLE_LINE1": "1 53840U 22114Y   25314.47662285  .00000823  00000+0  69796-4 0  9998",
    "TLE_LINE2": "2 53840  53.2159 109.3459 0001161  86.0727 274.0398 15.08842915174971",
    "COMMENT": "Grouped by shell and plane from TLE"
  },
  {
    "OBJECT_NAME": "STARLINK-4750",
    "OBJECT_ID": "22114Z",
    "EPOCH": "2025-11-11T03:29:25.389600",
    "MEAN_MOTION": 15.0884528,
    "ECCENTRICITY": 0.0001453,
    "INCLINATION": 53.2159,
    "RA_OF_ASC_NODE": 106.4151,
    "ARG_OF_PERICENTER": 87.7676,
    "MEAN_ANOMALY": 272.3483,
    "EPHEMERIS_TYPE": 0,
    "CLASSIFICATION_TYPE": "U",
    "NORAD_CAT_ID": 53841,
    "ELEMENT_SET_NO": 999,
    "REV_AT_EPOCH": 17507,
    "BSTAR": 6.0082000000000005e-05,
    "MEAN_MOTION_DOT": 6.68e-06,
    "MEAN_MOTION_DDOT": 0.0,
    "TLE_LINE1": "1 53841U 22114Z   25315.14543275  .00000668  00000+0  60082-4 0  9997",
    "TLE_LINE2": "2 53841  53.2159 106.4151 0001453  87.7676 272.3483 15.08845280175070",
    "COMMENT": "Grouped by shell and plane from TLE"
  },
  {
    "OBJECT_NAME": "STARLINK-4754",
    "OBJECT_ID": "22114AA",
    "EPOCH": "2025-11-10T17:35:54.588480",
    "MEAN_MOTION": 15.08834842,
    "ECCENTRICITY": 0.0001278,
    "INCLINATION": 53.2165,
    "RA_OF_ASC_NODE": 108.1073,
    "ARG_OF_PERICENTER": 78.9722,
    "MEAN_ANOMALY": 281.1414,
    "EPHEMERIS_TYPE": 0,
    "CLASSIFICATION_TYPE": "U",
    "NORAD_CAT_ID": 53842,
    "ELEMENT_SET_NO": 999,
    "REV_AT_EPOCH": 17501,
    "BSTAR": 0.00017352,
    "MEAN_MOTION_DOT": 2.474e-05,
    "MEAN_MOTION_DDOT": 0.0,
    "TLE_LINE1": "1 53842U 22114AA  25314.73327070  .00002474  00000+0  17352-3 0  9993",
    "TLE_LINE2": "2 53842  53.2165 108.1073 0001278  78.9722 281.1414 15.08834842175017",
    "COMMENT": "Grouped by shell and plane from TLE"
  },
  {
    "OBJECT_NAME": "STARLINK-4769",
    "OBJECT_ID": "22114AB",
    "EPOCH": "2025-11-11T03:24:08.152128",
    "MEAN_MOTION": 15.08832049,
    "ECCENTRICITY": 0.0001669,
    "INCLINATION": 53.2165,
    "RA_OF_ASC_NODE": 106.3938,
    "ARG_OF_PERICENTER": 90.3408,
    "MEAN_ANOMALY": 269.7776,
    "EPHEMERIS_TYPE": 0,
    "CLASSIFICATION_TYPE": "U",
    "NORAD_CAT_ID": 53843,
    "ELEMENT_SET_NO": 999,
    "REV_AT_EPOCH": 17507,
    "BSTAR": 0.00027138,
    "MEAN_MOTION_DOT": 4.033e-05,
    "MEAN_MOTION_DDOT": 0.0,
    "TLE_LINE1": "1 53843U 22114AB  25315.14176102  .00004033  00000+0  27138-3 0  9994",
    "TLE_LINE2": "2 53843  53.2165 106.3938 0001669  90.3408 269.7776 15.08832049175077",
    "COMMENT": "Grouped by shell and plane from TLE"
  },
  {
    "OBJECT_NAME": "STARLINK-4745",
    "OBJECT_ID": "22114AC",
    "EPOCH": "2025-11-10T20:36:02.764512",
    "MEAN_MOTION": 15.08839556,
    "ECCENTRICITY": 0.0001191,
    "INCLINATION": 53.2158,
    "RA_OF_ASC_NODE": 107.4662,
    "ARG_OF_PERICENTER": 89.0912,
    "MEAN_ANOMALY": 271.0216,
    "EPHEMERIS_TYPE": 0,
    "CLASSIFICATION_TYPE": "U",
    "NORAD_CAT_ID": 53844,
    "ELEMENT_SET_NO": 999,
    "REV_AT_EPOCH": 17503,
    "BSTAR": 6.473100000000001e-05,
    "MEAN_MOTION_DOT": 7.42e-06,
    "MEAN_MOTION_DDOT": 0.0,
    "TLE_LINE1": "1 53844U 22114AC  25314.85836533  .00000742  00000+0  64731-4 0  9997",
    "TLE_LINE2": "2 53844  53.2158 107.4662 0001191  89.0912 271.0216 15.08839556175032",
    "COMMENT": "Grouped by shell and plane from TLE"
  },
  {
    "OBJECT_NAME": "STARLINK-4753",
    "OBJECT_ID": "22114AD",
    "EPOCH": "2025-11-11T03:13:33.001536",
    "MEAN_MOTION": 15.08819541,
    "ECCENTRICITY": 0.0002281,
    "INCLINATION": 53.2142,
    "RA_OF_ASC_NODE": 106.3657,
    "ARG_OF_PERICENTER": 98.6074,
    "MEAN_ANOMALY": 261.5177,
    "EPHEMERIS_TYPE": 0,
    "CLASSIFICATION_TYPE": "U",
    "NORAD_CAT_ID": 53845,
    "ELEMENT_SET_NO": 999,
    "REV_AT_EPOCH": 17507,
    "BSTAR": 7.2039e-05,
    "MEAN_MOTION_DOT": 8.58e-06,
    "MEAN_MOTION_DDOT": 0.0,
    "TLE_LINE1": "1 53845U 22114AD  25315.13440974  .00000858  00000+0  72039-4 0  9998",
    "TLE_LINE2": "2 53845  53.2142 106.3657 0002281  98.6074 261.5177 15.08819541175070",
    "COMMENT": "Grouped by shell and plane from TLE"
  },
  {
    "OBJECT_NAME": "STARLINK-4746",
    "OBJECT_ID": "22114AE",
    "EPOCH": "2025-11-11T02:46:59.064096",
    "MEAN_MOTION": 15.08836707,
    "ECCENTRICITY": 0.0001617,
    "INCLINATION": 53.2165,
    "RA_OF_ASC_NODE": 106.2319,
    "ARG_OF_PERICENTER": 87.9461,
    "MEAN_ANOMALY": 272.1716,
    "EPHEMERIS_TYPE": 0,
    "CLASSIFICATION_TYPE": "U",
    "NORAD_CAT_ID": 53846,
    "ELEMENT_SET_NO": 999,
    "REV_AT_EPOCH": 17507,
    "BSTAR": 0.00018383,
    "MEAN_MOTION_DOT": 2.639e-05,
    "MEAN_MOTION_DDOT": 0.0,
    "TLE_LINE1": "1 53846U 22114AE  25315.11596139  .00002639  00000+0  18383-3 0  9992",
    "TLE_LINE2": "2 53846  53.2165 106.2319 0001617  87.9461 272.1716 15.08836707175073",
    "COMMENT": "Grouped by shell and plane from TLE"
  }
]